{
  "norad_id": 53068,
  "name": "STARLINK-4325",
  "history": [
    {
      "epoch": "2026-03-28T18:35:46.728096Z",
      "apogee_km": 550.5644717482583,
      "perigee_km": 548.4861730515377,
      "latitude_deg": -5.50005278335099e-05,
      "longitude_deg": 164.90044757167652,
      "height_km": 552.6119085226173,
      "semi_major_axis_km": 6927.662322399898,
      "eccentricity": 0.00015,
      "inclination_deg": 97.6027,
      "raan_deg": 270.0356,
      "arg_perigee_deg": 91.3122,
      "mean_anomaly_deg": 268.8276,
      "mean_motion_rev_day": 15.05645381
    },
    {
      "epoch": "2026-03-29T00:58:34.644000Z",
      "apogee_km": 550.5939665480628,
      "perigee_km": 548.4422368734704,
      "latitude_deg": 3.744311382941615e-05,
      "longitude_deg": 69.20076930278618,
      "height_km": 552.6053374212235,
      "semi_major_axis_km": 6927.655101710766,
      "eccentricity": 0.0001553,
      "inclination_deg": 97.6028,
      "raan_deg": 270.2976,
      "arg_perigee_deg": 91.3075,
      "mean_anomaly_deg": 268.833,
      "mean_motion_rev_day": 15.05647735
    },
    {
      "epoch": "2026-03-30T00:54:04.563648Z",
      "apogee_km": 550.6123625163209,
      "perigee_km": 548.425994226428,
      "latitude_deg": 5.618832020363232e-05,
      "longitude_deg": 70.32603822582895,
      "height_km": 552.6185649272455,
      "semi_major_axis_km": 6927.656178371374,
      "eccentricity": 0.0001578,
      "inclination_deg": 97.6028,
      "raan_deg": 271.2801,
      "arg_perigee_deg": 91.9261,
      "mean_anomaly_deg": 268.2147,
      "mean_motion_rev_day": 15.05647384
    },
    {
      "epoch": "2026-03-30T00:54:04.564512Z",
      "apogee_km": 550.6123625163209,
      "perigee_km": 548.425994226428,
      "latitude_deg": 5.6188320208195555e-05,
      "longitude_deg": 70.32603461597186,
      "height_km": 552.6185649272455,
      "semi_major_axis_km": 6927.656178371374,
      "eccentricity": 0.0001578,
      "inclination_deg": 97.6028,
      "raan_deg": 271.2801,
      "arg_perigee_deg": 91.9261,
      "mean_anomaly_deg": 268.2147,
      "mean_motion_rev_day": 15.05647384
    },
    {
      "epoch": "2026-03-30T12:03:58.603104Z",
      "apogee_km": 550.6324339801968,
      "perigee_km": 548.4094870938197,
      "latitude_deg": 5.440492847939938e-05,
      "longitude_deg": -97.14895610663352,
      "height_km": 552.6219957388116,
      "semi_major_axis_km": 6927.657960537008,
      "eccentricity": 0.00016044,
      "inclination_deg": 97.6027,
      "raan_deg": 271.7388,
      "arg_perigee_deg": 91.9816,
      "mean_anomaly_deg": 268.1595,
      "mean_motion_rev_day": 15.05646803
    },
    {
      "epoch": "2026-03-31T18:22:16.937184Z",
      "apogee_km": 550.6744218787617,
      "perigee_km": 548.3896766263188,
      "latitude_deg": -6.55419985744454e-05,
      "longitude_deg": 168.27418352823028,
      "height_km": 552.6056901525558,
      "semi_major_axis_km": 6927.66904925254,
      "eccentricity": 0.0001649,
      "inclination_deg": 97.6027,
      "raan_deg": 272.9829,
      "arg_perigee_deg": 90.5572,
      "mean_anomaly_deg": 269.5843,
      "mean_motion_rev_day": 15.05643188
    },
    {
      "epoch": "2026-04-01T18:17:48.061248Z",
      "apogee_km": 551.1950185986598,
      "perigee_km": 547.8974413811857,
      "latitude_deg": 5.688875899870292e-05,
      "longitude_deg": 169.39210728783402,
      "height_km": 552.603058007467,
      "semi_major_axis_km": 6927.683229989922,
      "eccentricity": 0.000238,
      "inclination_deg": 97.6009,
      "raan_deg": 273.9631,
      "arg_perigee_deg": 89.8457,
      "mean_anomaly_deg": 270.3043,
      "mean_motion_rev_day": 15.05638565
    },
    {
      "epoch": "2026-04-02T18:13:17.795136Z",
      "apogee_km": 550.6855499347048,
      "perigee_km": 548.3893029693127,
      "latitude_deg": -5.8535627652957116e-05,
      "longitude_deg": 170.52107043050512,
      "height_km": 552.5822266086767,
      "semi_major_axis_km": 6927.674426452008,
      "eccentricity": 0.00016573,
      "inclination_deg": 97.6023,
      "raan_deg": 274.9485,
      "arg_perigee_deg": 89.1157,
      "mean_anomaly_deg": 271.0259,
      "mean_motion_rev_day": 15.05641435
    },
    {
      "epoch": "2026-04-03T11:45:59.540544Z",
      "apogee_km": 550.8200432628964,
      "perigee_km": 548.2198165108321,
      "latitude_deg": 3.207665091117633e-05,
      "longitude_deg": -92.65302530816278,
      "height_km": 552.4038129195045,
      "semi_major_axis_km": 6927.6569298868635,
      "eccentricity": 0.00018767,
      "inclination_deg": 97.6025,
      "raan_deg": 275.6689,
      "arg_perigee_deg": 82.1201,
      "mean_anomaly_deg": 278.0239,
      "mean_motion_rev_day": 15.05647139
    },
    {
      "epoch": "2026-04-04T11:41:28.748256Z",
      "apogee_km": 550.7445686728452,
      "perigee_km": 548.2249926312215,
      "latitude_deg": 5.380703220606302e-05,
      "longitude_deg": -91.52478329171826,
      "height_km": 552.3493882527016,
      "semi_major_axis_km": 6927.6217806520335,
      "eccentricity": 0.00018185,
      "inclination_deg": 97.6025,
      "raan_deg": 276.6514,
      "arg_perigee_deg": 80.9742,
      "mean_anomaly_deg": 279.1691,
      "mean_motion_rev_day": 15.05658598
    },
    {
      "epoch": "2026-04-05T11:36:59.412672Z",
      "apogee_km": 550.6574601009306,
      "perigee_km": 548.3774304698982,
      "latitude_deg": -2.987702555389666e-05,
      "longitude_deg": -90.40241435329291,
      "height_km": 552.417200396794,
      "semi_major_axis_km": 6927.654445285414,
      "eccentricity": 0.00016456,
      "inclination_deg": 97.6027,
      "raan_deg": 277.6341,
      "arg_perigee_deg": 81.7911,
      "mean_anomaly_deg": 278.3502,
      "mean_motion_rev_day": 15.05647949
    },
    {
      "epoch": "2026-04-05T17:59:47.193792Z",
      "apogee_km": 550.6585928802706,
      "perigee_km": 548.3627704385681,
      "latitude_deg": 2.5251319844742745e-05,
      "longitude_deg": 173.89857505989062,
      "height_km": 552.4157765276058,
      "semi_major_axis_km": 6927.6476816594195,
      "eccentricity": 0.0001657,
      "inclination_deg": 97.6027,
      "raan_deg": 277.8962,
      "arg_perigee_deg": 82.1184,
      "mean_anomaly_deg": 278.0231,
      "mean_motion_rev_day": 15.05650154
    },
    {
      "epoch": "2026-04-06T01:58:16.999680Z",
      "apogee_km": 550.5802695488783,
      "perigee_km": 548.429652378517,
      "latitude_deg": -5.9535665311104127e-05,
      "longitude_deg": 54.273875065620096,
      "height_km": 552.4567739192394,
      "semi_major_axis_km": 6927.641960963698,
      "eccentricity": 0.00015522,
      "inclination_deg": 97.6028,
      "raan_deg": 278.2232,
      "arg_perigee_deg": 84.0815,
      "mean_anomaly_deg": 276.0588,
      "mean_motion_rev_day": 15.05652019
    },
    {
      "epoch": "2026-04-07T11:27:58.753440Z",
      "apogee_km": 550.5950493549572,
      "perigee_km": 548.4399945862624,
      "latitude_deg": -4.478792511946845e-05,
      "longitude_deg": -88.14989253186589,
      "height_km": 552.442884037313,
      "semi_major_axis_km": 6927.6545219706095,
      "eccentricity": 0.00015554,
      "inclination_deg": 97.6028,
      "raan_deg": 279.599,
      "arg_perigee_deg": 82.6784,
      "mean_anomaly_deg": 277.4619,
      "mean_motion_rev_day": 15.05647924
    },
    {
      "epoch": "2026-04-08T11:23:29.077440Z",
      "apogee_km": 550.5629378103558,
      "perigee_km": 548.4846395737477,
      "latitude_deg": -3.4839096717964675e-05,
      "longitude_deg": -87.02631538178883,
      "height_km": 552.463591970787,
      "semi_major_axis_km": 6927.660788692051,
      "eccentricity": 0.00015,
      "inclination_deg": 97.6027,
      "raan_deg": 280.5815,
      "arg_perigee_deg": 83.2039,
      "mean_anomaly_deg": 276.9358,
      "mean_motion_rev_day": 15.05645881
    },
    {
      "epoch": "2026-04-09T11:18:58.890816Z",
      "apogee_km": 550.5229992625764,
      "perigee_km": 548.501511209899,
      "latitude_deg": 9.29459384661393e-05,
      "longitude_deg": -85.9008204455529,
      "height_km": 552.4277373457362,
      "semi_major_axis_km": 6927.649255236238,
      "eccentricity": 0.0001459,
      "inclination_deg": 97.6027,
      "raan_deg": 281.5638,
      "arg_perigee_deg": 81.6174,
      "mean_anomaly_deg": 278.5219,
      "mean_motion_rev_day": 15.05649641
    },
    {
      "epoch": "2026-04-10T00:04:34.853088Z",
      "apogee_km": 550.532689121077,
      "perigee_km": 548.5001156128228,
      "latitude_deg": 2.5086339587301008e-05,
      "longitude_deg": 82.69951006876485,
      "height_km": 552.4222054722346,
      "semi_major_axis_km": 6927.65340236695,
      "eccentricity": 0.0001467,
      "inclination_deg": 97.6029,
      "raan_deg": 282.088,
      "arg_perigee_deg": 81.1121,
      "mean_anomaly_deg": 279.0272,
      "mean_motion_rev_day": 15.05648289
    }
  ]
}